LANDSAT 9               
1 49260U 21088A   24287.90082600  .00001411  00000+0  32330-3 0  9998
2 49260  98.2208 356.0100 0001429  78.7590 281.3769 14.57095457161987
